NORAD_CAT_ID,OBJECT_NAME,OBJECT_TYPE,EPOCH,MEAN_MOTION,ECCENTRICITY,INCLINATION,RA_OF_ASC_NODE,ARG_OF_PERICENTER,MEAN_ANOMALY,BSTAR,MEAN_MOTION_DOT,MEAN_MOTION_DDOT,TLE_LINE0,TLE_LINE1,TLE_LINE2,SEMIMAJOR_AXIS,PERIOD,APOGEE,PERIGEE,DECAYED
228,DELTA 1 DEB (YO),DEBRIS,2021-06-04 10:46:05,15.01706171,0.0014173,48.4283,209.898,64.1847,296.0537,3.1249e-05,1.48e-06,0.0,0 DELTA 1 DEB (YO),1 00228U 62002C   21155.44867905  .00000148  00000-0  31249-4 0  9995,2 00228  48.4283 209.8980 0014173  64.1847 296.0537 15.01706171164119,6939.772,95.891,571.4730000000002,551.8009999999998,0.0
228,DELTA 1 DEB (YO),DEBRIS,2021-06-04 20:20:58,15.01706485,0.0014163000000000001,48.4282,207.9335,65.9837,294.2568,3.1331e-05,1.49e-06,0.0,0 DELTA 1 DEB (YO),1 00228U 62002C   21155.84789641  .00000149  00000-0  31331-4 0  9992,2 00228  48.4282 207.9335 0014163  65.9837 294.2568 15.01706485164176,6939.771,95.891,571.465,551.807,0.0
228,DELTA 1 DEB (YO),DEBRIS,2021-06-05 07:31:39,15.01706731,0.0014154999999999999,48.4282,205.6413,68.1821,292.0607,3.071e-05,1.41e-06,0.0,0 DELTA 1 DEB (YO),1 00228U 62002C   21156.31364999  .00000141  00000-0  30710-4 0  9992,2 00228  48.4282 205.6413 0014155  68.1821 292.0607 15.01706731164249,6939.77,95.891,571.4580000000002,551.812,0.0
228,DELTA 1 DEB (YO),DEBRIS,2021-06-05 20:18:09,15.01707124,0.0014149000000000002,48.4281,203.0219,70.6027,289.6425,3.1246e-05,1.48e-06,0.0,0 DELTA 1 DEB (YO),1 00228U 62002C   21156.84593960  .00000148  00000-0  31246-4 0  9994,2 00228  48.4281 203.0219 0014149  70.6027 289.6425 15.01707124164329,6939.769,95.891,571.453,551.815,0.0
228,DELTA 1 DEB (YO),DEBRIS,2021-06-06 09:04:38,15.01707503,0.0014144000000000001,48.428000000000004,200.4023,73.0875,287.1598,3.1746e-05,1.54e-06,0.0,0 DELTA 1 DEB (YO),1 00228U 62002C   21157.37822906  .00000154  00000-0  31746-4 0  9990,2 00228  48.4280 200.4023 0014144  73.0875 287.1598 15.01707503164409,6939.768,95.891,571.448,551.817,0.0
228,DELTA 1 DEB (YO),DEBRIS,2021-06-07 09:01:49,15.01707831,0.0014127,48.428000000000004,195.4908,77.6994,282.551,2.5669e-05,7.4e-07,0.0,0 DELTA 1 DEB (YO),1 00228U 62002C   21158.37627120  .00000074  00000-0  25669-4 0  9990,2 00228  48.4280 195.4908 0014127  77.6994 282.5510 15.01707831164550,6939.767,95.891,571.436,551.828,0.0
228,DELTA 1 DEB (YO),DEBRIS,2021-06-08 08:59:00,15.01709128,0.0014118,48.4279,190.5792,82.3259,277.9267,3.1002e-05,1.45e-06,0.0,0 DELTA 1 DEB (YO),1   228U 62002C   21159.37431215  .00000145  00000-0  31002-4 0  9996,2   228  48.4279 190.5792 0014118  82.3259 277.9267 15.01709128188837,6939.763000000001,95.891,571.425,551.83,0.0
228,DELTA 1 DEB (YO),DEBRIS,2021-06-09 12:07:48,15.01709839,0.0014112,48.4279,185.0128,87.5323,272.7216,2.9208000000000002e-05,1.21e-06,0.0,0 DELTA 1 DEB (YO),1 00228U 62002C   21160.50542485  .00000121  00000-0  29208-4 0  9994,2 00228  48.4279 185.0128 0014112  87.5323 272.7216 15.01709839164876,6939.7609999999995,95.891,571.419,551.832,0.0
228,DELTA 1 DEB (YO),DEBRIS,2021-06-09 18:31:03,15.01710014,0.0014104,48.4279,183.703,88.7425,271.5114,2.8565e-05,1.12e-06,0.0,0 DELTA 1 DEB (YO),1 00228U 62002C   21160.77156882  .00000112  00000-0  28565-4 0  9990,2 00228  48.4279 183.7030 0014104  88.7425 271.5114 15.01710014164916,6939.76,95.891,571.413,551.837,0.0
228,DELTA 1 DEB (YO),DEBRIS,2021-06-10 07:17:33,15.01710282,0.0014107000000000002,48.4279,181.0835,91.2508,269.0032,2.6951e-05,9.1e-07,0.0,0 DELTA 1 DEB (YO),1 00228U 62002C   21161.30385674  .00000091  00000-0  26951-4 0  9996,2 00228  48.4279 181.0835 0014107  91.2508 269.0032 15.01710282164990,6939.759,95.891,571.414,551.8340000000002,0.0
228,DELTA 1 DEB (YO),DEBRIS,2021-06-11 07:14:43,15.01711181,0.001411,48.4279,176.1719,95.8693,264.384,2.7858000000000013e-05,1.03e-06,0.0,0 DELTA 1 DEB (YO),1 00228U 62002C   21162.30189585  .00000103  00000-0  27858-4 0  9991,2 00228  48.4279 176.1719 0014110  95.8693 264.3840 15.01711181165147,6939.7559999999985,95.891,571.413,551.8290000000002,0.0
228,DELTA 1 DEB (YO),DEBRIS,2021-06-12 02:24:28,15.01712068,0.0014112,48.4278,172.2426,99.5488,260.7031,2.9338000000000013e-05,1.23e-06,0.0,0 DELTA 1 DEB (YO),1   228U 62002C   21163.10032641  .00000123  00000-0  29338-4 0  9997,2   228  48.4278 172.2426 0014112  99.5488 260.7031 15.01712068189393,6939.754,95.891,571.4119999999998,551.825,0.0
228,DELTA 1 DEB (YO),DEBRIS,2021-06-12 10:23:31,15.01712369,0.0014119000000000002,48.4278,170.6055,101.0539,259.1974,2.9073e-05,1.19e-06,0.0,0 DELTA 1 DEB (YO),1 00228U 62002C   21163.43300569  .00000119  00000-0  29073-4 0  9991,2 00228  48.4278 170.6055 0014119 101.0539 259.1974 15.01712369165314,6939.753000000002,95.891,571.4159999999998,551.82,0.0
228,DELTA 1 DEB (YO),DEBRIS,2021-06-13 07:09:04,15.01713249,0.0014121,48.4278,166.3487,104.9984,255.2504,2.9432e-05,1.24e-06,0.0,0 DELTA 1 DEB (YO),1 00228U 62002C   21164.29797123  .00000124  00000-0  29432-4 0  9997,2 00228  48.4278 166.3487 0014121 104.9984 255.2504 15.01713249165442,6939.75,95.89,571.415,551.815,0.0
228,DELTA 1 DEB (YO),DEBRIS,2021-06-13 16:43:56,15.01713778,0.0014129000000000001,48.4279,164.3843,106.8487,253.3987,3.0784e-05,1.42e-06,0.0,0 DELTA 1 DEB (YO),1 00228U 62002C   21164.69718582  .00000142  00000-0  30784-4 0  9995,2 00228  48.4279 164.3843 0014129 106.8487 253.3987 15.01713778165502,6939.748000000001,95.89,571.419,551.808,0.0
228,DELTA 1 DEB (YO),DEBRIS,2021-06-14 07:06:15,15.01714319,0.0014138,48.4279,161.4372,109.5524,250.6928,3.0959e-05,1.44e-06,0.0,0 DELTA 1 DEB (YO),1   228U 62002C   21165.29600761  .00000144  00000-0  30959-4 0  9997,2   228  48.4279 161.4372 0014138 109.5524 250.6928 15.01714319189726,6939.7469999999985,95.89,571.423,551.8,0.0
228,DELTA 1 DEB (YO),DEBRIS,2021-06-14 16:41:07,15.01714712,0.0014140000000000001,48.4279,159.4725,111.3932,248.8502,3.116e-05,1.47e-06,0.0,0 DELTA 1 DEB (YO),1 00228U 62002C   21165.69522194  .00000147  00000-0  31160-4 0  9992,2 00228  48.4279 159.4725 0014140 111.3932 248.8502 15.01714712165652,6939.746,95.89,571.423,551.798,0.0
228,DELTA 1 DEB (YO),DEBRIS,2021-06-15 05:27:36,15.01715241,0.0014154000000000007,48.4279,156.8529,113.8223,246.4186,3.2072e-05,1.59e-06,0.0,0 DELTA 1 DEB (YO),1 00228U 62002C   21166.22750760  .00000159  00000-0  32072-4 0  9990,2 00228  48.4279 156.8529 0014154 113.8223 246.4186 15.01715241165739,6939.744000000002,95.89,571.431,551.786,0.0
228,DELTA 1 DEB (YO),DEBRIS,2021-06-16 05:24:46,15.01716539,0.0014172,48.4279,151.9412,118.5185,241.7167,3.5944e-05,2.1000000000000002e-06,0.0,0 DELTA 1 DEB (YO),1 00228U 62002C   21167.22554231  .00000210  00000-0  35944-4 0  9995,2 00228  48.4279 151.9412 0014172 118.5185 241.7167 15.01716539165889,6939.74,95.89,571.44,551.77,0.0
228,DELTA 1 DEB (YO),DEBRIS,2021-06-17 02:10:19,15.01717909,0.0014202,48.428000000000004,147.6844,122.4598,237.77,4.0653e-05,2.72e-06,0.0,0 DELTA 1 DEB (YO),1   228U 62002C   21168.09050479  .00000272  00000-0  40653-4 0  9997,2   228  48.4280 147.6844 0014202 122.4598 237.7700 15.01717909190145,6939.736,95.89,571.457,551.745,0.0
228,DELTA 1 DEB (YO),DEBRIS,2021-06-17 08:33:34,15.01718096,0.0014207,48.428000000000004,146.3747,123.69,236.5381,3.9687e-05,2.6e-06,0.0,0 DELTA 1 DEB (YO),1 00228U 62002C   21168.35664712  .00000260  00000-0  39687-4 0  9999,2 00228  48.4280 146.3747 0014207 123.6900 236.5381 15.01718096166051,6939.735,95.89,571.4590000000002,551.741,0.0
228,DELTA 1 DEB (YO),DEBRIS,2021-06-17 19:44:15,15.01718616,0.0014210999999999998,48.4281,144.0826,125.8438,234.3808,4.0091999999999995e-05,2.65e-06,0.0,0 DELTA 1 DEB (YO),1 00228U 62002C   21168.82239589  .00000265  00000-0  40092-4 0  9998,2 00228  48.4281 144.0826 0014211 125.8438 234.3808 15.01718616166126,6939.734,95.89,571.461,551.737,0.0
228,DELTA 1 DEB (YO),DEBRIS,2021-06-18 05:19:07,15.01718853,0.0014226,48.4282,142.1178,127.6853,232.5363,3.7363e-05,2.29e-06,0.0,0 DELTA 1 DEB (YO),1 00228U 62002C   21169.22160895  .00000229  00000-0  37363-4 0  9993,2 00228  48.4282 142.1178 0014226 127.6853 232.5363 15.01718853166188,6939.733,95.89,571.47,551.725,0.0
228,DELTA 1 DEB (YO),DEBRIS,2021-06-19 03:40:28,15.01719804,0.0014259000000000001,48.4284,137.5338,131.9332,228.2809,3.7713e-05,2.33e-06,0.0,0 DELTA 1 DEB (YO),1 00228U 62002C   21170.15310570  .00000233  00000-0  37713-4 0  9998,2 00228  48.4284 137.5338 0014259 131.9332 228.2809 15.01719804166322,6939.73,95.89,571.49,551.7,0.0
228,DELTA 1 DEB (YO),DEBRIS,2021-06-19 14:51:08,15.01720226,0.0014265999999999999,48.4285,135.2418,134.0388,226.1713,3.715e-05,2.26e-06,0.0,0 DELTA 1 DEB (YO),1 00228U 62002C   21170.61885385  .00000226  00000-0  37150-4 0  9997,2 00228  48.4285 135.2418 0014266 134.0388 226.1713 15.01720226166398,6939.729,95.89,571.494,551.693,0.0
228,DELTA 1 DEB (YO),DEBRIS,2021-06-20 00:26:00,15.01720503,0.0014288,48.4285,133.2771,135.8773,224.3293,3.5633e-05,2.06e-06,0.0,0 DELTA 1 DEB (YO),1   228U 62002C   21171.01806643  .00000206  00000-0  35633-4 0  9994,2   228  48.4285 133.2771 0014288 135.8773 224.3293 15.01720503190588,6939.728,95.89,571.508,551.677,0.0
228,DELTA 1 DEB (YO),DEBRIS,2021-06-20 02:01:49,15.01720503,0.001429,48.4286,132.9497,136.1906,224.0154,3.48e-05,1.95e-06,0.0,0 DELTA 1 DEB (YO),1 00228U 62002C   21171.08460187  .00000195  00000-0  34800-4 0  9992,2 00228  48.4286 132.9497 0014290 136.1906 224.0154 15.01720503166468,6939.728,95.89,571.51,551.6759999999998,0.0
228,DELTA 1 DEB (YO),DEBRIS,2021-06-21 03:34:48,15.01721471,0.0014335,48.4287,127.7106,141.025,219.171,3.3315e-05,1.75e-06,0.0,0 DELTA 1 DEB (YO),1   228U 62002C   21172.14916815  .00000175  00000-0  33315-4 0  9992,2   228  48.4287 127.7106 0014335 141.0250 219.1710 15.01721471190752,6939.725,95.89,571.538,551.6419999999998,0.0
228,DELTA 1 DEB (YO),DEBRIS,2021-06-22 03:31:57,15.01722446,0.0014372999999999999,48.4289,122.7991,145.5763,214.6094,3.2559e-05,1.65e-06,0.0,0 DELTA 1 DEB (YO),1 00228U 62002C   21173.14719820  .00000165  00000-0  32559-4 0  9998,2 00228  48.4289 122.7991 0014373 145.5763 214.6094 15.01722446166774,6939.722,95.89,571.561,551.612,0.0
